NORAD_CAT_ID,OBJECT_NAME,OBJECT_TYPE,EPOCH,MEAN_MOTION,ECCENTRICITY,INCLINATION,RA_OF_ASC_NODE,ARG_OF_PERICENTER,MEAN_ANOMALY,BSTAR,MEAN_MOTION_DOT,MEAN_MOTION_DDOT,TLE_LINE0,TLE_LINE1,TLE_LINE2,SEMIMAJOR_AXIS,PERIOD,APOGEE,PERIGEE,DECAYED
55920.0,STARLINK-5862,PAYLOAD,2024-03-05 20:28:01,14.9832295,0.000286,70.0015,334.918,268.7994,91.2837,3.2092e-05,2.9e-06,0.0,0 STARLINK-5862,1 55920U 23037G   24065.85279753  .00000290  00000-0  32092-4 0  9990,2 55920  70.0015 334.9180 0002860 268.7994  91.2837 14.98322950 54399,6950.215,96.107,574.067,570.092,0.0
55920.0,STARLINK-5862,PAYLOAD,2024-03-06 04:28:42,14.98324923,0.0002533,70.0017,334.0764,260.3591,99.7282,-9.5049e-05,-1.227e-05,0.0,0 STARLINK-5862,1 55920U 23037G   24066.18660108 -.00001227  00000-0 -95049-4 0  9999,2 55920  70.0017 334.0764 0002533 260.3591  99.7282 14.98324923 54106,6950.209,96.107,573.834,570.313,0.0
55920.0,STARLINK-5862,PAYLOAD,2024-03-06 20:30:02,14.98329309,0.0002746,70.0014,332.3939,262.6847,97.4,-7.4324e-05,-9.8e-06,0.0,0 STARLINK-5862,1 55920U 23037G   24066.85419775 -.00000980  00000-0 -74324-4 0  9993,2 55920  70.0014 332.3939 0002746 262.6847  97.4000 14.98329309 54547,6950.195,96.107,573.969,570.152,0.0
55920.0,STARLINK-5862,PAYLOAD,2024-03-07 10:55:15,14.98326077,0.0002841,70.001,330.8784,261.2574,98.8264,-9.5184e-05,-1.228e-05,0.0,0 STARLINK-5862,1 55920U 23037G   24067.45504097 -.00001228  00000-0 -95184-4 0  9995,2 55920  70.0010 330.8784 0002841 261.2574  98.8264 14.98326077 54290,6950.205,96.107,574.045,570.095,0.0
55920.0,STARLINK-5862,PAYLOAD,2024-03-08 02:56:35,14.98326217,0.0003004,70.0006,329.194,269.2262,90.8553,7.0176e-05,7.44e-06,0.0,0 STARLINK-5862,1 55920U 23037G   24068.12263878  .00000744  00000-0  70176-4 0  9993,2 55920  70.0006 329.1940 0003004 269.2262  90.8553 14.98326217 54732,6950.205,96.107,574.157,569.982,0.0
55920.0,STARLINK-5862,PAYLOAD,2024-03-08 10:57:16,14.98330796,0.0003047,70.0006,328.3524,270.4332,89.6478,5.0158e-05,5.06e-06,0.0,0 STARLINK-5862,1 55920U 23037G   24068.45643671  .00000506  00000-0  50158-4 0  9996,2 55920  70.0006 328.3524 0003047 270.4332  89.6478 14.98330796 54447,6950.19,96.107,574.173,569.938,0.0
55920.0,STARLINK-5862,PAYLOAD,2024-03-09 02:58:36,14.98332313,0.0002885,70.0008,326.6692,266.6793,93.4036,0.00010918,1.21e-05,0.0,0 STARLINK-5862,1 55920U 23037G   24069.12403421  .00001210  00000-0  10918-3 0  9990,2 55920  70.0008 326.6692 0002885 266.6793  93.4036 14.98332313 54881,6950.186,96.107,574.056,570.046,0.0
55920.0,STARLINK-5862,PAYLOAD,2024-03-09 10:59:17,14.98325246,0.0002828,70.001,325.8272,266.6667,93.4168,0.00013787,1.552e-05,0.0,0 STARLINK-5862,1 55920U 23037G   24069.45783767  .00001552  00000-0  13787-3 0  9996,2 55920  70.0010 325.8272 0002828 266.6667  93.4168 14.98325246 54597,6950.208,96.107,574.038,570.107,0.0
55920.0,STARLINK-5862,PAYLOAD,2024-03-10 03:00:37,14.98330379,0.0002826,70.0011,324.1446,265.4259,94.6578,1.896e-05,1.33e-06,0.0,0 STARLINK-5862,1 55920U 23037G   24070.12543703  .00000133  00000-0  18960-4 0  9999,2 55920  70.0011 324.1446 0002826 265.4259  94.6578 14.98330379 54697,6950.192,96.107,574.021,570.093,0.0
55920.0,STARLINK-5862,PAYLOAD,2024-03-10 20:38:06,14.98330606,0.0003028,70.0009,322.2931,271.0465,89.0348,-1.7465e-05,-3.01e-06,0.0,0 STARLINK-5862,1 55920U 23037G   24070.85979663 -.00000301  00000-0 -17465-4 0  9995,2 55920  70.0009 322.2931 0003028 271.0465  89.0348 14.98330606 55146,6950.191,96.107,574.161,569.951,0.0
55920.0,STARLINK-5862,PAYLOAD,2024-03-10 22:14:14,14.9833037,0.0003085,70.0007,322.1247,270.7851,89.2955,-2.3835e-05,-3.77e-06,0.0,0 STARLINK-5862,1 55920U 23037G   24070.92655667 -.00000377  00000-0 -23835-4 0  9999,2 55920  70.0007 322.1247 0003085 270.7851  89.2955 14.98330370 54818,6950.192,96.107,574.201,569.913,0.0
55920.0,STARLINK-5862,PAYLOAD,2024-03-11 03:02:38,14.98354258,0.0002926,70.0007,321.6198,269.5215,90.5608,-0.00035234,-4.297e-05,0.0,0 STARLINK-5862,1 55920U 23037G   24071.12683185 -.00004297  00000-0 -35234-3 0  9998,2 55920  70.0007 321.6198 0002926 269.5215  90.5608 14.98354258 55182,6950.118,96.105,574.016,569.949,0.0
55920.0,STARLINK-5862,PAYLOAD,2024-03-11 09:27:10,14.98362373,0.0002978,70.0007,320.9464,269.0454,91.0363,-0.00056392,-6.821e-05,0.0,0 STARLINK-5862,1 55920U 23037G   24071.39386827 -.00006821  00000-0 -56392-3 0  9993,2 55920  70.0007 320.9464 0002978 269.0454  91.0363 14.98362373 54884,6950.093,96.105,574.028,569.888,0.0
55920.0,STARLINK-5862,PAYLOAD,2024-03-12 01:28:31,14.98329986,0.0002817,70.0004,319.2635,271.6763,88.4073,1.1501e-05,4.4e-07,0.0,0 STARLINK-5862,1 55920U 23037G   24072.06147512  .00000044  00000-0  11501-4 0  9997,2 55920  70.0004 319.2635 0002817 271.6763  88.4073 14.98329986 55327,6950.193,96.107,574.016,570.1,0.0
55920.0,STARLINK-5862,PAYLOAD,2024-03-12 22:18:16,14.98331329,0.0002874,70.0,317.0754,268.0349,92.0481,4.5762e-06,-3.8e-07,0.0,0 STARLINK-5862,1 55920U 23037G   24072.92935359 -.00000038  00000-0  45762-5 0  9997,2 55920  70.0000 317.0754 0002874 268.0349  92.0481 14.98331329 55119,6950.189,96.107,574.051,570.056,0.0
55920.0,STARLINK-5862,PAYLOAD,2024-03-13 09:31:12,14.98330932,0.000298,69.9997,315.8967,270.2695,89.8123,-1.5112e-05,-2.73e-06,0.0,0 STARLINK-5862,1 55920U 23037G   24073.39667359 -.00000273  00000-0 -15112-4 0  9998,2 55920  69.9997 315.8967 0002980 270.2695  89.8123 14.98330932 55521,6950.19,96.107,574.126,569.984,0.0
55920.0,STARLINK-5862,PAYLOAD,2024-03-13 22:20:17,14.98327276,0.0002786,69.9996,314.5521,272.2349,87.8491,-3.6273e-05,-5.26e-06,0.0,0 STARLINK-5862,1 55920U 23037G   24073.93075793 -.00000526  00000-0 -36273-4 0  9995,2 55920  69.9996 314.5521 0002786 272.2349  87.8491 14.98327276 55268,6950.201,96.107,574.003,570.13,0.0
55920.0,STARLINK-5862,PAYLOAD,2024-03-14 01:32:33,14.98328627,0.0002773,69.9996,314.2155,272.3233,87.7609,-2.1557e-05,-3.5e-06,0.0,0 STARLINK-5862,1 55920U 23037G   24074.06427672 -.00000350  00000-0 -21557-4 0  9991,2 55920  69.9996 314.2155 0002773 272.3233  87.7609 14.98328627 55280,6950.197,96.107,573.989,570.135,0.0
55920.0,STARLINK-5862,PAYLOAD,2024-03-14 09:33:13,14.98329436,0.000288,69.9994,313.3721,271.4538,88.6291,-2.3833e-06,-1.21e-06,0.0,0 STARLINK-5862,1 55920U 23037G   24074.39807521 -.00000121  00000-0 -23833-5 0  9998,2 55920  69.9994 313.3721 0002880 271.4538  88.6291 14.98329436 55673,6950.195,96.107,574.061,570.058,0.0
55920.0,STARLINK-5862,PAYLOAD,2024-03-14 22:22:17,14.98333355,0.0002913,69.9995,312.0252,271.0766,89.0059,4.3122e-06,-4.2e-07,0.0,0 STARLINK-5862,1 55920U 23037G   24074.93215182 -.00000042  00000-0  43122-5 0  9998,2 55920  69.9995 312.0252 0002913 271.0766  89.0059 14.98333355 55419,6950.183,96.107,574.072,570.023,0.0
55920.0,STARLINK-5862,PAYLOAD,2024-03-15 01:34:33,14.98334476,0.00029,69.9995,311.6885,271.1011,88.9816,1.639e-05,1.03e-06,0.0,0 STARLINK-5862,1 55920U 23037G   24075.06567043  .00000103  00000-0  16390-4 0  9992,2 55920  69.9995 311.6885 0002900 271.1011  88.9816 14.98334476 55779,6950.179,96.107,574.06,570.028,0.0
55920.0,STARLINK-5862,PAYLOAD,2024-03-15 22:24:19,14.9832812,0.0002819,69.9997,309.4998,271.0618,89.0218,4.7961e-06,-3.6e-07,0.0,0 STARLINK-5862,1 55920U 23037G   24075.93355460 -.00000036  00000-0  47961-5 0  9991,2 55920  69.9997 309.4998 0002819 271.0618  89.0218 14.98328120 55566,6950.199,96.107,574.023,570.104,0.0
55920.0,STARLINK-5862,PAYLOAD,2024-03-16 01:36:35,14.98328381,0.0002807,69.9997,309.1632,271.2225,88.8613,8.2124e-06,5e-08,0.0,0 STARLINK-5862,1 55920U 23037G   24076.06707452  .00000005  00000-0  82124-5 0  9993,2 55920  69.9997 309.1632 0002807 271.2225  88.8613 14.98328381 55926,6950.198,96.107,574.014,570.112,0.0
55920.0,STARLINK-5862,PAYLOAD,2024-03-16 14:25:39,14.98331064,0.0002679,69.9998,307.8159,269.9062,90.179,-3.6573e-05,-5.29e-06,0.0,0 STARLINK-5862,1 55920U 23037G   24076.60115446 -.00000529  00000-0 -36573-4 0  9998,2 55920  69.9998 307.8159 0002679 269.9062  90.1790 14.98331064 55661,6950.19,96.107,573.917,570.193,0.0
55920.0,STARLINK-5862,PAYLOAD,2024-03-16 22:26:20,14.98329007,0.0002776,69.9996,306.9751,266.2442,93.84,-3.5408e-05,-5.15e-06,0.0,0 STARLINK-5862,1 55920U 23037G   24076.93495497 -.00000515  00000-0 -35408-4 0  9992,2 55920  69.9996 306.9751 0002776 266.2442  93.8400 14.98329007 55715,6950.196,96.107,573.99,570.132,0.0
55920.0,STARLINK-5862,PAYLOAD,2024-03-17 01:38:36,14.98329401,0.000277,69.9996,306.6385,266.6239,93.4603,-2.9821e-05,-4.49e-06,0.0,0 STARLINK-5862,1 55920U 23037G   24077.06847464 -.00000449  00000-0 -29821-4 0  9990,2 55920  69.9996 306.6385 0002770 266.6239  93.4603 14.98329401 56076,6950.195,96.107,573.985,570.135,0.0
55920.0,STARLINK-5862,PAYLOAD,2024-03-17 14:27:40,14.98328652,0.0002864,69.9994,305.292,268.4545,91.6286,1.4183e-05,7.6e-07,0.0,0 STARLINK-5862,1 55920U 23037G   24077.60255357  .00000076  00000-0  14183-4 0  9993,2 55920  69.9994 305.2920 0002864 268.4545  91.6286 14.98328652 55813,6950.197,96.107,574.053,570.072,0.0
55920.0,STARLINK-5862,PAYLOAD,2024-03-17 22:28:20,14.98328058,0.0002894,69.9994,304.4503,265.847,94.2358,1.0455e-05,3.2e-07,0.0,0 STARLINK-5862,1 55920U 23037G   24077.93635398  .00000032  00000-0  10455-4 0  9996,2 55920  69.9994 304.4503 0002894 265.8470  94.2358 14.98328058 55866,6950.199,96.107,574.075,570.053,0.0
55920.0,STARLINK-5862,PAYLOAD,2024-03-18 00:04:29,14.98328517,0.0002888,69.9994,304.282,266.0076,94.0752,1.5309e-05,9e-07,0.0,0 STARLINK-5862,1 55920U 23037G   24078.00311362  .00000090  00000-0  15309-4 0  9994,2 55920  69.9994 304.2820 0002888 266.0076  94.0752 14.98328517 55871,6950.197,96.107,574.07,570.055,0.0
55920.0,STARLINK-5862,PAYLOAD,2024-03-18 20:54:14,14.98327206,0.0002917,69.9993,302.0936,266.7617,93.3209,3.5127e-06,-5.1e-07,0.0,0 STARLINK-5862,1 55920U 23037G   24078.87099561 -.00000051  00000-0  35127-5 0  9992,2 55920  69.9993 302.0936 0002917 266.7617  93.3209 14.98327206 56341,6950.202,96.107,574.094,570.039,0.0
